{
  "links" : {
    "next" : "https://api.nasa.gov/neo/rest/v1/feed?start_date=2013-10-16&end_date=2013-10-16&detailed=true&api_key=t0TVs3DtDT2H8Oy2Zy8m2eVrNsAVKAexjcZXUckd",
    "prev" : "https://api.nasa.gov/neo/rest/v1/feed?start_date=2013-10-14&end_date=2013-10-14&detailed=true&api_key=t0TVs3DtDT2H8Oy2Zy8m2eVrNsAVKAexjcZXUckd",
    "self" : "https://api.nasa.gov/neo/rest/v1/feed?start_date=2013-10-15&end_date=2013-10-15&detailed=true&api_key=t0TVs3DtDT2H8Oy2Zy8m2eVrNsAVKAexjcZXUckd"
  },
  "element_count" : 13,
  "near_earth_objects" : {
    "2013-10-15" : [ {
      "links" : {
        "self" : "https://api.nasa.gov/neo/rest/v1/neo/2462775?api_key=t0TVs3DtDT2H8Oy2Zy8m2eVrNsAVKAexjcZXUckd"
      },
      "neo_reference_id" : "2462775",
      "name" : "462775 (2010 GY6)",
      "nasa_jpl_url" : "http://ssd.jpl.nasa.gov/sbdb.cgi?sstr=2462775",
      "absolute_magnitude_h" : 19.4,
      "estimated_diameter" : {
        "kilometers" : {
          "estimated_diameter_min" : 0.3503926411,
          "estimated_diameter_max" : 0.7835017643
        },
        "meters" : {
          "estimated_diameter_min" : 350.3926411083,
          "estimated_diameter_max" : 783.5017643338
        },
        "miles" : {
          "estimated_diameter_min" : 0.2177238258,
          "estimated_diameter_max" : 0.4868452748
        },
        "feet" : {
          "estimated_diameter_min" : 1149.5821926537,
          "estimated_diameter_max" : 2570.543928497
        }
      },
      "is_potentially_hazardous_asteroid" : false,
      "close_approach_data" : [ {
        "close_approach_date" : "2013-10-15",
        "epoch_date_close_approach" : 1381820400000,
        "relative_velocity" : {
          "kilometers_per_second" : "15.3661001061",
          "kilometers_per_hour" : "55317.9603819557",
          "miles_per_hour" : "34372.4293273324"
        },
        "miss_distance" : {
          "astronomical" : "0.1859076082",
          "lunar" : "72.3180541992",
          "kilometers" : "27811382",
          "miles" : "17281192"
        },
        "orbiting_body" : "Earth"
      } ],
      "orbital_data" : {
        "orbit_id" : "78",
        "orbit_determination_date" : "2017-04-06 09:19:36",
        "orbit_uncertainty" : "0",
        "minimum_orbit_intersection" : ".0932129",
        "jupiter_tisserand_invariant" : "4.941",
        "epoch_osculation" : "2458000.5",
        "eccentricity" : ".2342665485366242",
        "semi_major_axis" : "1.28662610159893",
        "inclination" : "21.90884734020362",
        "ascending_node_longitude" : "204.6904507507371",
        "orbital_period" : "533.0610658221542",
        "perihelion_distance" : ".9852126455202169",
        "perihelion_argument" : "116.0106715285072",
        "aphelion_distance" : "1.588039557677644",
        "perihelion_time" : "2458131.485150086296",
        "mean_anomaly" : "271.5398646525825",
        "mean_motion" : ".6753447645716958",
        "equinox" : "J2000"
      }
    }, {
      "links" : {
        "self" : "https://api.nasa.gov/neo/rest/v1/neo/3388485?api_key=t0TVs3DtDT2H8Oy2Zy8m2eVrNsAVKAexjcZXUckd"
      },
      "neo_reference_id" : "3388485",
      "name" : "(2007 TN74)",
      "nasa_jpl_url" : "http://ssd.jpl.nasa.gov/sbdb.cgi?sstr=3388485",
      "absolute_magnitude_h" : 25.6,
      "estimated_diameter" : {
        "kilometers" : {
          "estimated_diameter_min" : 0.0201629919,
          "estimated_diameter_max" : 0.0450858206
        },
        "meters" : {
          "estimated_diameter_min" : 20.1629919443,
          "estimated_diameter_max" : 45.0858206172
        },
        "miles" : {
          "estimated_diameter_min" : 0.0125286985,
          "estimated_diameter_max" : 0.0280150214
        },
        "feet" : {
          "estimated_diameter_min" : 66.1515504905,
          "estimated_diameter_max" : 147.9193637137
        }
      },
      "is_potentially_hazardous_asteroid" : false,
      "close_approach_data" : [ {
        "close_approach_date" : "2013-10-15",
        "epoch_date_close_approach" : 1381820400000,
        "relative_velocity" : {
          "kilometers_per_second" : "19.1671862934",
          "kilometers_per_hour" : "69001.8706561097",
          "miles_per_hour" : "42875.0790196255"
        },
        "miss_distance" : {
          "astronomical" : "0.3527396372",
          "lunar" : "137.215713501",
          "kilometers" : "52769100",
          "miles" : "32789198"
        },
        "orbiting_body" : "Earth"
      } ],
      "orbital_data" : {
        "orbit_id" : "7",
        "orbit_determination_date" : "2017-04-06 09:05:38",
        "orbit_uncertainty" : "7",
        "minimum_orbit_intersection" : ".0488276",
        "jupiter_tisserand_invariant" : "6.587",
        "epoch_osculation" : "2458000.5",
        "eccentricity" : ".2983804993468079",
        "semi_major_axis" : ".8962695113490006",
        "inclination" : "9.685183408148138",
        "ascending_node_longitude" : "14.85815635393738",
        "orbital_period" : "309.9248228270602",
        "perihelion_distance" : ".6288401670033663",
        "perihelion_argument" : "146.2426189112685",
        "aphelion_distance" : "1.163698855694635",
        "perihelion_time" : "2457894.346391270402",
        "mean_anomaly" : "123.3050608662596",
        "mean_motion" : "1.161572011935559",
        "equinox" : "J2000"
      }
    }, {
      "links" : {
        "self" : "https://api.nasa.gov/neo/rest/v1/neo/3638379?api_key=t0TVs3DtDT2H8Oy2Zy8m2eVrNsAVKAexjcZXUckd"
      },
      "neo_reference_id" : "3638379",
      "name" : "(2013 JK22)",
      "nasa_jpl_url" : "http://ssd.jpl.nasa.gov/sbdb.cgi?sstr=3638379",
      "absolute_magnitude_h" : 20.3,
      "estimated_diameter" : {
        "kilometers" : {
          "estimated_diameter_min" : 0.2315021222,
          "estimated_diameter_max" : 0.5176544822
        },
        "meters" : {
          "estimated_diameter_min" : 231.5021222103,
          "estimated_diameter_max" : 517.6544821978
        },
        "miles" : {
          "estimated_diameter_min" : 0.1438487052,
          "estimated_diameter_max" : 0.3216554833
        },
        "feet" : {
          "estimated_diameter_min" : 759.5214226325,
          "estimated_diameter_max" : 1698.3415313737
        }
      },
      "is_potentially_hazardous_asteroid" : false,
      "close_approach_data" : [ {
        "close_approach_date" : "2013-10-15",
        "epoch_date_close_approach" : 1381820400000,
        "relative_velocity" : {
          "kilometers_per_second" : "12.7878561145",
          "kilometers_per_hour" : "46036.2820120326",
          "miles_per_hour" : "28605.155342421"
        },
        "miss_distance" : {
          "astronomical" : "0.324439277",
          "lunar" : "126.2068862915",
          "kilometers" : "48535428",
          "miles" : "30158516"
        },
        "orbiting_body" : "Earth"
      } ],
      "orbital_data" : {
        "orbit_id" : "35",
        "orbit_determination_date" : "2017-04-06 08:45:52",
        "orbit_uncertainty" : "1",
        "minimum_orbit_intersection" : ".180635",
        "jupiter_tisserand_invariant" : "4.845",
        "epoch_osculation" : "2458000.5",
        "eccentricity" : ".190871590856768",
        "semi_major_axis" : "1.338367720457229",
        "inclination" : "16.00080562950688",
        "ascending_node_longitude" : "225.6213792474541",
        "orbital_period" : "565.5377597357088",
        "perihelion_distance" : "1.082911344502211",
        "perihelion_argument" : "111.164148866079",
        "aphelion_distance" : "1.593824096412246",
        "perihelion_time" : "2458244.957999681429",
        "mean_anomaly" : "204.3872608498478",
        "mean_motion" : ".6365622698088944",
        "equinox" : "J2000"
      }
    } ]
  }
}